#dP2022 10 28  0  0  0.00000000      96 __u+U ITR00 EXT  IAC
## 2233 432000.00000000   900.00000000 59880 0.0000000000000
+  116   C06C07C08C09C10C11C12C13C14C16C19C20C21C22C23C24C25
+        C26C27C28C29C30C32C33C34C35C36C37C38C39C40C41C42C43
+        C44C45C46E01E03E04E05E07E08E09E10E11E12E13E14E15E18
+        E19E21E24E25E26E27E30E31E33E34E36G01G02G03G04G05G06
+        G07G08G09G10G11G12G13G14G15G16G17G18G19G20G21G22G23
+        G24G25G26G27G29G30G31G32J02J03J04R01R02R03R04R05R07
+        R08R09R11R12R13R14R15R17R18R19R20R21R22R24  0  0  0
++         0  0  0  0  0  0  0  0  0  0  0  0  0  0  0  0  0
++         0  0  0  0  0  0  0  0  0  0  0  0  0  0  0  0  0
++         0  0  0  0  0  0  0  0  0  0  0  0  0  0  0  0  0
++         0  0  0  0  0  0  0  0  0  0  0  0  0  0  0  0  0
++         0  0  0  0  0  0  0  0  0  0  0  0  0  0  0  0  0
++         0  0  0  0  0  0  0  0  0  0  0  0  0  0  0  0  0
++         0  0  0  0  0  0  0  0  0  0  0  0  0  0  0  0  0
%c M  cc GPS ccc cccc cccc cccc cccc ccccc ccccc ccccc ccccc
%c cc cc ccc ccc cccc cccc cccc cccc ccccc ccccc ccccc ccccc
%f  0.0000000  0.000000000  0.00000000000  0.000000000000000
%f  0.0000000  0.000000000  0.00000000000  0.000000000000000
%i    0    0    0    0      0      0      0      0         0
%i    0    0    0    0      0      0      0      0         0
/* IAC                                ULTRA-RAPID PREDICTION
/* S/V CLOCKS ARE ALIGNED TO GNSS TIME                      
/* G:C1WC2W R:C1PC2P E:C1XC5X C:C2IC6I J:C1CC2S             
/* PCV:IGS14_2218 OL/AL:FES2004  NONE     YN ORB:CoN CLK:CoN
*  2022 10 28 12 15  0.00000000
PC06 -17849.757272  34569.061152  15968.556785    882.637445
PC07  -3811.034350  36568.928726  20829.598683    293.568341
PC08  -8907.635405  19168.020701 -36501.112201    502.721794
PC09  -9368.929629  32855.238245  24740.471591   -822.334464
PC10   2628.902459  39530.457261  15435.290172     77.088316
PC11   5348.049218 -22764.870063  15272.359764   -325.341169
PC12  17847.535593 -21392.000394  -1356.576645   -464.328650
PC13   1324.548548  22538.277998 -35459.784555    118.650650
PC14  -5595.886436 -26233.202468   7615.451447    605.857218
PC16 -21473.734960  34157.910735  11933.360213    124.092100
PC19  12110.180813  25088.623458   1755.407308   -922.285164
PC20   -384.843825  23949.797044 -14332.569196    853.058554
PC21  13600.174682  -8208.269683  22949.069906   -699.566091
PC22  18169.160529  11843.638024  17560.877913   -825.477620
PC23 -26492.387159  -7053.722522  -5232.018521   -774.697765
PC24   9210.134041 -14708.916984 -21855.941261   -828.051501
PC25 -13917.708899 -15033.596138 -18966.103945     16.264925
PC26  23985.681594  -6691.354035 -12569.604649    -27.870393
PC27 -20741.577444  15995.134402   9599.961230     42.740274
PC28 -18078.861308   -693.863183  21254.768273     29.448068
PC29   4824.809068  18081.866035 -20704.620271     32.851245
PC30 -11355.605557  24476.542186  -7091.730188      0.726025
PC32 -13585.889394   8227.566024 -22938.836880   -740.752423
PC33 -12186.111908 -25046.775743  -1630.106578   -924.754930
PC34  10548.503432 -24530.320098   8130.696481     26.685034
PC35  17470.346035   1636.425120 -21711.001521     62.377151
PC36  12889.308271  15511.454996  19307.272545   -890.365837
PC37 -24898.914393   5283.804584  11487.466076   -653.529181
PC38 -17518.585497  18872.807869 -33414.248757     34.186896
PC39 -23028.616585  34570.127737   6625.694167     -0.745557
PC40  -7762.733477  33043.653969  25149.267870     -6.947642
PC41 -18201.760973 -12329.320591 -17146.962137   -217.933967
PC42   1339.069009 -23342.021539  15259.471376   -557.394336
PC43  -4186.303052 -18690.229609  20294.982599     21.961414
PC44  20259.351437 -16547.240013  -9768.176480     95.813656
PC45  26596.182550   6813.376342   4916.694552    -15.367405
PC46  -7286.352934  15092.214618  22320.912116     -9.261444
PE01  12805.551753 -11042.644948 -24287.422796   -555.088289
PE03 -12486.463532  23311.654817 -13316.620506   -614.292995
PE04    559.332171 -29245.209123  -4549.942628  -1146.331285
PE05 -17330.732684   3520.653479 -23741.492020   -130.176180
PE07  12024.492664  17986.523003  20200.011062   -716.891404
PE08   -501.393075  29242.705157   4578.002488   -622.892723
PE09 -11867.178039 -18101.758128 -20191.677942   -709.094333
PE10  -7233.839971 -14321.921458  24868.869993   -486.826468
PE11 -17790.644249  -8139.334942  22204.215630   1585.572682
PE12   3600.980086 -17889.955612  23306.521628   -246.480512
PE13  17012.634324   8624.488491 -22628.943198    430.666846
PE14   8851.725955  25287.705371 -18370.522909     40.509495
PE15  -3883.707960  17889.564288 -23255.229684    711.143111
PE18  -7349.262389 -17099.939125  14269.779066   -809.193684
PE19  13641.477010 -21274.434624  15413.230842  -4146.733212
PE21  24281.250517   4648.098944 -16268.250708   -491.342626
PE24 -22204.211542 -19428.472189  -2568.350440   -916.030443
PE25 -24387.480340  -4909.574026  16059.438709   -591.304752
PE26  27863.780553  -6105.781600  -7875.926468  -1779.318722
PE27  22738.888419  18870.178990   1625.529675   -426.045409
PE30   6950.005440  21732.485992  18844.729984   -952.609809
PE31  -7855.301162 -21843.144498 -18359.278506   -506.800723
PE33  22342.474416 -16541.516061  10168.345623   -455.124393
PE34 -22207.097742  16645.750419 -10323.362347    -11.734960
PE36 -27722.232603   5598.838006   8744.997801   -452.491512
PG01    766.272330  15010.193117 -22175.318371    260.453608
PG02  -1439.759310 -15800.588203  21977.491591   -640.434278
PG03   7965.563844  20717.414294 -14792.279526   -368.778640
PG04    208.114599  24929.229704   9016.292471    -96.177886
PG05   3726.834029 -15757.322074  20855.382385   -102.119087
PG06  25719.411845  -6173.009622  -2760.141755    503.628744
PG07  16813.621423   8974.027947  19112.514648    293.993278
PG08  -5914.836823  25644.943164   1427.002064    -91.066906
PG09   9145.202758  17717.210129  17446.748815   -276.929800
PG10 -22059.998803  -9053.699409 -11869.263719     -9.446242
PG11  21945.988984 -12085.113728   8766.459967    -31.513334
PG12  -5944.266436 -21250.611605 -15126.416927   -297.543676
PG13  13201.705921 -21695.643887   7267.060334    414.323876
PG14  21913.412324  11012.318765 -10330.053049    -90.128615
PG15   2611.036335 -26245.834196    716.518423    -17.169649
PG16 -10471.554882  10666.425163  21665.754828   -526.690366
PG17  14125.508175   3928.120793 -21706.196794    672.903912
PG18 -17933.815848  -7517.225781  18154.499288     -1.317481
PG19  16452.597559  -7453.851443 -19617.602257    229.794740
PG20  15655.079583  -7217.990432  20160.636499    474.726863
PG21  -8148.892050  16902.623834 -17877.141913    157.199259
PG22 -16120.877774  10997.773334 -17516.467019    353.980642
PG23 -21074.342953 -16157.948589  -2053.125262     -1.147296
PG24   2683.176709 -17287.843067 -20206.004260     82.256795
PG25 -16084.957014 -20406.374123  -6462.513707    386.954720
PG26 -18573.257750   2866.306925  18796.670945    234.006854
PG27 -12545.910895  19803.139434  11872.048465    189.871041
PG29  -6154.036142 -19399.403717  16978.188468   -563.063094
PG30  24434.144838    797.754810  10779.500615   -537.091079
PG31 -25976.055823   6478.284304  -1657.789500   -198.317817
PG32 -15363.313691   -294.354834 -21499.758422   -277.690817
PJ02 -25661.885151  22318.455326  29927.200297     -8.350570
PJ03 -34772.088743  23880.576879   3534.924338     -3.622132
PJ04 -20993.016035  25144.103660 -21397.413466    112.243509
PR01  10559.854336  20436.842447  11023.494188     16.939890
PR02  11517.212203   3019.283766  22585.027979    -23.139486
PR03   6077.844961 -15276.742559  19563.079625     66.278148
PR04  -2596.420857 -24712.454613   5826.598059    162.822828
PR05  -9784.717163 -20775.192400 -11134.370497    101.974612
PR07  -5733.849528  15851.467472 -19091.493764     43.310294
PR08   2795.548114  24705.392094  -5570.765084    -67.835195
PR09 -24364.902493  -3655.241708   6476.942906     84.472507
PR11   2395.022721  11812.125411  22494.728579     23.251170
PR12  19723.207195  11646.551086  11234.194515     22.389498
PR13  24569.443540   4741.237465  -4957.531296    -28.274685
PR14  14707.084631  -5709.721372 -20035.121809     24.186811
PR15  -3332.979560 -12148.411726 -22158.573628     92.956687
PR17  18719.787525 -17285.463404    420.193935    573.069555
PR18   9065.268984 -17729.155878  15986.952584     49.242119
PR19  -4082.992391  -9979.660023  23119.200342   -208.903581
PR20 -18411.499731   5868.415730  16643.601828    -81.083278
PR21 -18296.658607  17682.393936  -2045.586413   -345.179484
PR22  -8947.660996  17381.304781 -16353.041132     15.026695
PR24  18703.864693  -6689.268193 -15967.547196    123.032850
EOF
